<?xml version="1.0" encoding="UTF-8"?>
<ndm xmlns:xsi="http://www.w3.org/2001/XMLSchema-instance" xsi:noNamespaceSchemaLocation="https://sanaregistry.org/r/ndmxml_unqualified/ndmxml-2.0.0-master-2.0.xsd">
<omm id="CCSDS_OMM_VERS" version="2.0">
<header><CREATION_DATE/><ORIGINATOR/></header><body><segment><metadata><OBJECT_NAME>ONEWEB-0094</OBJECT_NAME><OBJECT_ID>2020-020AC</OBJECT_ID><CENTER_NAME>EARTH</CENTER_NAME><REF_FRAME>TEME</REF_FRAME><TIME_SYSTEM>UTC</TIME_SYSTEM><MEAN_ELEMENT_THEORY>SGP4</MEAN_ELEMENT_THEORY></metadata><data><meanElements><EPOCH>2025-12-26T03:27:57.328128</EPOCH><MEAN_MOTION>13.17647937</MEAN_MOTION><ECCENTRICITY>.0001862</ECCENTRICITY><INCLINATION>87.9108</INCLINATION><RA_OF_ASC_NODE>40.2394</RA_OF_ASC_NODE><ARG_OF_PERICENTER>94.3035</ARG_OF_PERICENTER><MEAN_ANOMALY>265.8310</MEAN_ANOMALY></meanElements><tleParameters><EPHEMERIS_TYPE>0</EPHEMERIS_TYPE><CLASSIFICATION_TYPE>U</CLASSIFICATION_TYPE><NORAD_CAT_ID>45450</NORAD_CAT_ID><ELEMENT_SET_NO>999</ELEMENT_SET_NO><REV_AT_EPOCH>28352</REV_AT_EPOCH><BSTAR>.14875E-3</BSTAR><MEAN_MOTION_DOT>.71E-6</MEAN_MOTION_DOT><MEAN_MOTION_DDOT>0</MEAN_MOTION_DDOT></tleParameters></data></segment></body></omm>
<omm id="CCSDS_OMM_VERS" version="2.0">
<header><CREATION_DATE/><ORIGINATOR/></header><body><segment><metadata><OBJECT_NAME>ONEWEB-0087</OBJECT_NAME><OBJECT_ID>2020-020AD</OBJECT_ID><CENTER_NAME>EARTH</CENTER_NAME><REF_FRAME>TEME</REF_FRAME><TIME_SYSTEM>UTC</TIME_SYSTEM><MEAN_ELEMENT_THEORY>SGP4</MEAN_ELEMENT_THEORY></metadata><data><meanElements><EPOCH>2025-12-26T03:25:37.285824</EPOCH><MEAN_MOTION>13.11417903</MEAN_MOTION><ECCENTRICITY>.0002034</ECCENTRICITY><INCLINATION>87.8862</INCLINATION><RA_OF_ASC_NODE>55.4739</RA_OF_ASC_NODE><ARG_OF_PERICENTER>95.4105</ARG_OF_PERICENTER><MEAN_ANOMALY>264.7255</MEAN_ANOMALY></meanElements><tleParameters><EPHEMERIS_TYPE>0</EPHEMERIS_TYPE><CLASSIFICATION_TYPE>U</CLASSIFICATION_TYPE><NORAD_CAT_ID>45451</NORAD_CAT_ID><ELEMENT_SET_NO>999</ELEMENT_SET_NO><REV_AT_EPOCH>27990</REV_AT_EPOCH><BSTAR>.13025E-2</BSTAR><MEAN_MOTION_DOT>.474E-5</MEAN_MOTION_DOT><MEAN_MOTION_DDOT>0</MEAN_MOTION_DDOT></tleParameters></data></segment></body></omm>
<omm id="CCSDS_OMM_VERS" version="2.0">
<header><CREATION_DATE/><ORIGINATOR/></header><body><segment><metadata><OBJECT_NAME>ONEWEB-0082</OBJECT_NAME><OBJECT_ID>2020-020AE</OBJECT_ID><CENTER_NAME>EARTH</CENTER_NAME><REF_FRAME>TEME</REF_FRAME><TIME_SYSTEM>UTC</TIME_SYSTEM><MEAN_ELEMENT_THEORY>SGP4</MEAN_ELEMENT_THEORY></metadata><data><meanElements><EPOCH>2025-12-26T03:20:55.900032</EPOCH><MEAN_MOTION>13.11417262</MEAN_MOTION><ECCENTRICITY>.0001962</ECCENTRICITY><INCLINATION>87.8862</INCLINATION><RA_OF_ASC_NODE>55.4999</RA_OF_ASC_NODE><ARG_OF_PERICENTER>95.4576</ARG_OF_PERICENTER><MEAN_ANOMALY>264.6776</MEAN_ANOMALY></meanElements><tleParameters><EPHEMERIS_TYPE>0</EPHEMERIS_TYPE><CLASSIFICATION_TYPE>U</CLASSIFICATION_TYPE><NORAD_CAT_ID>45452</NORAD_CAT_ID><ELEMENT_SET_NO>999</ELEMENT_SET_NO><REV_AT_EPOCH>27999</REV_AT_EPOCH><BSTAR>.11495E-2</BSTAR><MEAN_MOTION_DOT>.42E-5</MEAN_MOTION_DOT><MEAN_MOTION_DDOT>0</MEAN_MOTION_DDOT></tleParameters></data></segment></body></omm>
<omm id="CCSDS_OMM_VERS" version="2.0">
<header><CREATION_DATE/><ORIGINATOR/></header><body><segment><metadata><OBJECT_NAME>ONEWEB-0050</OBJECT_NAME><OBJECT_ID>2020-020AF</OBJECT_ID><CENTER_NAME>EARTH</CENTER_NAME><REF_FRAME>TEME</REF_FRAME><TIME_SYSTEM>UTC</TIME_SYSTEM><MEAN_ELEMENT_THEORY>SGP4</MEAN_ELEMENT_THEORY></metadata><data><meanElements><EPOCH>2025-12-26T03:25:46.930656</EPOCH><MEAN_MOTION>14.89638557</MEAN_MOTION><ECCENTRICITY>.0001419</ECCENTRICITY><INCLINATION>88.9232</INCLINATION><RA_OF_ASC_NODE>256.8154</RA_OF_ASC_NODE><ARG_OF_PERICENTER>176.1420</ARG_OF_PERICENTER><MEAN_ANOMALY>183.9820</MEAN_ANOMALY></meanElements><tleParameters><EPHEMERIS_TYPE>0</EPHEMERIS_TYPE><CLASSIFICATION_TYPE>U</CLASSIFICATION_TYPE><NORAD_CAT_ID>45453</NORAD_CAT_ID><ELEMENT_SET_NO>999</ELEMENT_SET_NO><REV_AT_EPOCH>31461</REV_AT_EPOCH><BSTAR>.37098E-3</BSTAR><MEAN_MOTION_DOT>.3564E-4</MEAN_MOTION_DOT><MEAN_MOTION_DDOT>0</MEAN_MOTION_DDOT></tleParameters></data></segment></body></omm>
<omm id="CCSDS_OMM_VERS" version="2.0">
<header><CREATION_DATE/><ORIGINATOR/></header><body><segment><metadata><OBJECT_NAME>ONEWEB-0034</OBJECT_NAME><OBJECT_ID>2020-020AG</OBJECT_ID><CENTER_NAME>EARTH</CENTER_NAME><REF_FRAME>TEME</REF_FRAME><TIME_SYSTEM>UTC</TIME_SYSTEM><MEAN_ELEMENT_THEORY>SGP4</MEAN_ELEMENT_THEORY></metadata><data><meanElements><EPOCH>2025-12-26T03:51:26.912160</EPOCH><MEAN_MOTION>13.11415660</MEAN_MOTION><ECCENTRICITY>.0001774</ECCENTRICITY><INCLINATION>87.8848</INCLINATION><RA_OF_ASC_NODE>55.5081</RA_OF_ASC_NODE><ARG_OF_PERICENTER>99.9208</ARG_OF_PERICENTER><MEAN_ANOMALY>260.2120</MEAN_ANOMALY></meanElements><tleParameters><EPHEMERIS_TYPE>0</EPHEMERIS_TYPE><CLASSIFICATION_TYPE>U</CLASSIFICATION_TYPE><NORAD_CAT_ID>45454</NORAD_CAT_ID><ELEMENT_SET_NO>999</ELEMENT_SET_NO><REV_AT_EPOCH>27991</REV_AT_EPOCH><BSTAR>.91167E-3</BSTAR><MEAN_MOTION_DOT>.336E-5</MEAN_MOTION_DOT><MEAN_MOTION_DDOT>0</MEAN_MOTION_DDOT></tleParameters></data></segment></body></omm>
<omm id="CCSDS_OMM_VERS" version="2.0">
<header><CREATION_DATE/><ORIGINATOR/></header><body><segment><metadata><OBJECT_NAME>ONEWEB-0060</OBJECT_NAME><OBJECT_ID>2020-020AH</OBJECT_ID><CENTER_NAME>EARTH</CENTER_NAME><REF_FRAME>TEME</REF_FRAME><TIME_SYSTEM>UTC</TIME_SYSTEM><MEAN_ELEMENT_THEORY>SGP4</MEAN_ELEMENT_THEORY></metadata><data><meanElements><EPOCH>2025-12-26T03:09:54.909792</EPOCH><MEAN_MOTION>13.11418030</MEAN_MOTION><ECCENTRICITY>.0002626</ECCENTRICITY><INCLINATION>87.8840</INCLINATION><RA_OF_ASC_NODE>55.5301</RA_OF_ASC_NODE><ARG_OF_PERICENTER>83.5619</ARG_OF_PERICENTER><MEAN_ANOMALY>276.5808</MEAN_ANOMALY></meanElements><tleParameters><EPHEMERIS_TYPE>0</EPHEMERIS_TYPE><CLASSIFICATION_TYPE>U</CLASSIFICATION_TYPE><NORAD_CAT_ID>45455</NORAD_CAT_ID><ELEMENT_SET_NO>999</ELEMENT_SET_NO><REV_AT_EPOCH>27986</REV_AT_EPOCH><BSTAR>-.34106E-3</BSTAR><MEAN_MOTION_DOT>-.108E-5</MEAN_MOTION_DOT><MEAN_MOTION_DDOT>0</MEAN_MOTION_DDOT></tleParameters></data></segment></body></omm>
<omm id="CCSDS_OMM_VERS" version="2.0">
<header><CREATION_DATE/><ORIGINATOR/></header><body><segment><metadata><OBJECT_NAME>ONEWEB-0086</OBJECT_NAME><OBJECT_ID>2020-020AJ</OBJECT_ID><CENTER_NAME>EARTH</CENTER_NAME><REF_FRAME>TEME</REF_FRAME><TIME_SYSTEM>UTC</TIME_SYSTEM><MEAN_ELEMENT_THEORY>SGP4</MEAN_ELEMENT_THEORY></metadata><data><meanElements><EPOCH>2025-12-26T02:39:24.322752</EPOCH><MEAN_MOTION>13.11415873</MEAN_MOTION><ECCENTRICITY>.0001943</ECCENTRICITY><INCLINATION>87.8850</INCLINATION><RA_OF_ASC_NODE>55.5154</RA_OF_ASC_NODE><ARG_OF_PERICENTER>77.6236</ARG_OF_PERICENTER><MEAN_ANOMALY>282.5110</MEAN_ANOMALY></meanElements><tleParameters><EPHEMERIS_TYPE>0</EPHEMERIS_TYPE><CLASSIFICATION_TYPE>U</CLASSIFICATION_TYPE><NORAD_CAT_ID>45456</NORAD_CAT_ID><ELEMENT_SET_NO>999</ELEMENT_SET_NO><REV_AT_EPOCH>27992</REV_AT_EPOCH><BSTAR>-.14784E-2</BSTAR><MEAN_MOTION_DOT>-.511E-5</MEAN_MOTION_DOT><MEAN_MOTION_DDOT>0</MEAN_MOTION_DDOT></tleParameters></data></segment></body></omm>
<omm id="CCSDS_OMM_VERS" version="2.0">
<header><CREATION_DATE/><ORIGINATOR/></header><body><segment><metadata><OBJECT_NAME>ONEWEB-0088</OBJECT_NAME><OBJECT_ID>2020-020AK</OBJECT_ID><CENTER_NAME>EARTH</CENTER_NAME><REF_FRAME>TEME</REF_FRAME><TIME_SYSTEM>UTC</TIME_SYSTEM><MEAN_ELEMENT_THEORY>SGP4</MEAN_ELEMENT_THEORY></metadata><data><meanElements><EPOCH>2025-12-26T03:57:34.189920</EPOCH><MEAN_MOTION>13.11416118</MEAN_MOTION><ECCENTRICITY>.0001989</ECCENTRICITY><INCLINATION>87.8860</INCLINATION><RA_OF_ASC_NODE>55.4607</RA_OF_ASC_NODE><ARG_OF_PERICENTER>106.4956</ARG_OF_PERICENTER><MEAN_ANOMALY>253.6390</MEAN_ANOMALY></meanElements><tleParameters><EPHEMERIS_TYPE>0</EPHEMERIS_TYPE><CLASSIFICATION_TYPE>U</CLASSIFICATION_TYPE><NORAD_CAT_ID>45457</NORAD_CAT_ID><ELEMENT_SET_NO>999</ELEMENT_SET_NO><REV_AT_EPOCH>27986</REV_AT_EPOCH><BSTAR>.65524E-3</BSTAR><MEAN_MOTION_DOT>.245E-5</MEAN_MOTION_DOT><MEAN_MOTION_DDOT>0</MEAN_MOTION_DDOT></tleParameters></data></segment></body></omm>

</ndm>
