ONEWEB-0094             
1 45450U 20020AC  25360.14441352  .00000071  00000+0  14875-3 0  9997
2 45450  87.9108  40.2394 0001862  94.3035 265.8310 13.17647937283529
ONEWEB-0087             
1 45451U 20020AD  25360.14279266  .00000474  00000+0  13025-2 0  9993
2 45451  87.8862  55.4739 0002034  95.4105 264.7255 13.11417903279904
ONEWEB-0082             
1 45452U 20020AE  25360.13953588  .00000420  00000+0  11495-2 0  9999
2 45452  87.8862  55.4999 0001962  95.4576 264.6776 13.11417262279998
ONEWEB-0050             
1 45453U 20020AF  25360.14290429  .00003564  00000+0  37098-3 0  9999
2 45453  88.9232 256.8154 0001419 176.1420 183.9820 14.89638557314614
ONEWEB-0034             
1 45454U 20020AG  25360.16072815  .00000336  00000+0  91167-3 0  9990
2 45454  87.8848  55.5081 0001774  99.9208 260.2120 13.11415660279916
ONEWEB-0060             
1 45455U 20020AH  25360.13188553 -.00000108  00000+0 -34106-3 0  9994
2 45455  87.8840  55.5301 0002626  83.5619 276.5808 13.11418030279867
ONEWEB-0086             
1 45456U 20020AJ  25360.11069818 -.00000511  00000+0 -14784-2 0  9992
2 45456  87.8850  55.5154 0001943  77.6236 282.5110 13.11415873279927
ONEWEB-0088             
1 45457U 20020AK  25360.16497905  .00000245  00000+0  65524-3 0  9991
2 45457  87.8860  55.4607 0001989 106.4956 253.6390 13.11416118279866
